#aV2006  5 17  0  0   .00000000      96 DD+AD WGS84 FIT  NGA
## 1375 259200.00000000   900.00000000 53872  .0000000000000
+   29     1  2  3  4  5  6  7  8  9 10 11 13 14 15 16 17 18
+         19 20 21 22 23 24 25 26 27 28 29 30  0  0  0  0  0
+          0  0  0  0  0  0  0  0  0  0  0  0  0  0  0  0  0
+          0  0  0  0  0  0  0  0  0  0  0  0  0  0  0  0  0
+          0  0  0  0  0  0  0  0  0  0  0  0  0  0  0  0  0
++         0  0  0  0  0  0  0  0  0  0  0  0  0  0  0  0  0
++         0  0  0  0  0  0  0  0  0  0  0  0  0  0  0  0  0
++         0  0  0  0  0  0  0  0  0  0  0  0  0  0  0  0  0
++         0  0  0  0  0  0  0  0  0  0  0  0  0  0  0  0  0
++         0  0  0  0  0  0  0  0  0  0  0  0  0  0  0  0  0
%c cc cc ccc ccc cccc cccc cccc cccc ccccc ccccc ccccc ccccc
%c cc cc ccc ccc cccc cccc cccc cccc ccccc ccccc ccccc ccccc
%f  0.0000000  0.000000000  0.00000000000  0.000000000000000
%f  0.0000000  0.000000000  0.00000000000  0.000000000000000
%i    0    0    0    0      0      0      0      0         0
%i    0    0    0    0      0      0      0      0         0
/*      NGA, ST. LOUIS,MO.                                  
/*   EPHEMERIS COMPUTED FROM  3 DAYS OF DATA                
/* CCCCCCCCCCCCCCCCCCCCCCCCCCCCCCCCCCCCCCCCCCCCCCCCCCCCCCCCC
/* CCCCCCCCCCCCCCCCCCCCCCCCCCCCCCCCCCCCCCCCCCCCCCCCCCCCCCCCC
*  2006  5 17 20 45   .00000000                                                 
P  1 -17690.016139 -15165.337032  12986.235321     53.465666                    
V  1  15719.605787   3838.062857  26242.208966       .023587                    
P  2  12781.764092  20972.757384 -10629.644792     -2.085075                    
V  2    565.808175  13291.409005  27385.008126       .027047                    
P  3 -22166.942914 -11724.350357  -9368.068612     99.350020                    
V  3  12046.152702   -830.206830 -27647.350199       .030743                    
P  4   5768.925993  25726.940737   -262.921730    232.459820                    
V  4  -3322.817438   1021.668750  31745.544702       .092256                    
P  5  21132.098176  -9913.198004  12316.530145      7.630218                    
V  5  -8480.881772  13989.586853  25573.306785       .532151                    
P  6  17317.317625  -9042.066554 -17834.600095    528.469068                    
V  6  21801.575235   7884.189719  16911.359989       .169051                    
P  7  -5629.969980 -16349.639260 -19790.606477    537.487572                    
V  7  25621.125420   4660.856662 -11084.906314       .023586                    
P  8   -925.822274  25047.860008  -8278.548764    -66.032590                    
V  8  -4463.526591  -9750.361231 -29901.639769      -.012794                    
P  9  15649.727252   1855.614533  20876.116386     20.616011                    
V  9   6816.991991  26897.248220  -7035.132551       .015798                    
P 10  13710.054640   7444.713797 -21632.000050     83.584604                    
V 10 -19973.752629  18396.992689  -6052.759686       .006038                    
P 11 -16948.330829   1311.985229  20372.788169    327.691096                    
V 11  -8944.427626 -24716.209453  -5579.680651       .023712                    
P 13 -16529.402142   7847.592823 -19315.337921     62.534236                    
V 13 -22782.986522  -8461.848533  16186.212283       .028661                    
P 14  -3180.470377 -15733.896366  21235.081684    -13.844432                    
V 14  25663.946174   7498.095621   9379.078768       .007495                    
P 15   1771.608800 -25088.411216  -8025.744028    614.165425                    
V 15   4555.446840   9501.297976 -29671.183109       .061320                    
P 16  -8757.733463 -12472.297793 -21658.946295     43.452949                    
V 16  20545.424915 -18605.395158   2500.508711       .024315                    
P 17   1825.469898  15997.098793  21129.619115     93.090219                    
V 17 -25873.071755  -7155.065598   7555.155538       .028610                    
P 18  17510.880579 -19254.364011   4501.152447   -235.679153                    
V 18   6302.110921  -1334.254711 -31193.753202      -.016195                    
P 19 -25461.164103  -7007.110733   3169.590769    -10.330007                    
V 19  -2673.750081  -3995.640804 -31330.926778       .018885                    
P 20 -21861.184310  10970.081617  10223.207537    -26.763097                    
V 20   7666.870283 -10985.002658  27953.789635       .006055                    
P 21   7311.076725 -20171.894239 -15247.349927     29.341806                    
V 21   6457.196881  18835.269489 -22268.725582       .026544                    
P 22   6723.757063 -20356.999876  15824.766385     96.899808                    
V 22  16441.678726 -11281.485524 -21714.459700       .043326                    
P 23 -24452.257273    316.708488 -10659.065597    141.329267                    
V 23 -12157.579243  -5851.255856  27811.198541      -.008071                    
P 24  -3202.220073  24080.178694  10661.086149      6.685202                    
V 24  -4944.258924 -12600.810075  27838.422380       .028230                    
P 25 -10590.797462 -23978.461595  -3410.523790     73.682265                    
V 25   1449.340676  -5591.262234  31295.595518       .939045                    
P 26  25359.763007   8924.915373   -804.438747   -118.180122                    
V 26   -930.751475   1142.066354 -31975.895738      -.115341                    
P 27  -5725.560425  19824.830808 -15930.637942     49.204446                    
V 27  -8403.316085 -19920.051967 -21310.634913       .017510                    
P 28  -9391.818475  21010.551516  13237.027938     27.199441                    
V 28 -13844.922967   9259.428195 -25407.183461      -.007034                    
P 29  24553.661237   9742.287754  -3733.313754    606.205587                    
V 29  -5276.355705    285.831030 -31676.366597       .062634                    
P 30  19488.857336 -17832.317792   1783.153709    247.909323                    
V 30    618.000424   4285.895656  31348.439603       .230197                    
EOF
